start=new Date('2023-02-19T00:00:00.000Z').valueOf();
sats=[{"RCS_SIZE":"LARGE","INCLINATION":"53.0538","FILE":"3807439","MEAN_MOTION_DDOT":"0.0000000000000","OBJECT_NAME":"STARLINK-2613","ARG_OF_PERICENTER":"81.1215","TIME_SYSTEM":"UTC","REF_FRAME":"TEME","APOAPSIS":"548.172","MEAN_MOTION":"15.06394513","PERIAPSIS":"546.289","MEAN_MOTION_DOT":"0.00008353","ELEMENT_SET_NO":"999","TLE_LINE1":"1 48353U 21038A   23049.50976145  .00008353  00000-0  57909-3 0  9994","OBJECT_TYPE":"PAYLOAD","RA_OF_ASC_NODE":"327.8608","EPHEMERIS_TYPE":"0","PERIOD":"95.592","GP_ID":"225935110","MEAN_ANOMALY":"278.9928","BSTAR":"0.00057909000000","DECAY_DATE":null,"EPOCH":"2023-02-18T12:14:03.389280","ECCENTRICITY":"0.00013600","MEAN_ELEMENT_THEORY":"SGP4","CLASSIFICATION_TYPE":"U","CENTER_NAME":"EARTH","REV_AT_EPOCH":"9953","COUNTRY_CODE":"US","SITE":"AFETR","SEMIMAJOR_AXIS":"6925.365","OBJECT_ID":"2021-038A","NORAD_CAT_ID":"48353","TLE_LINE2":"2 48353  53.0538 327.8608 0001360  81.1215 278.9928 15.06394513 99539","LAUNCH_DATE":"2021-05-04"},{"RA_OF_ASC_NODE":"329.9526","PERIOD":"95.594","EPHEMERIS_TYPE":"0","OBJECT_TYPE":"PAYLOAD","TLE_LINE1":"1 48354U 21038B   23049.04165392 -.00001255  00000-0 -65406-4 0  9996","ELEMENT_SET_NO":"999","MEAN_MOTION_DOT":"-0.00001255","MEAN_MOTION":"15.06367421","PERIAPSIS":"546.201","APOAPSIS":"548.426","MEAN_MOTION_DDOT":"0.0000000000000","ARG_OF_PERICENTER":"77.6431","OBJECT_NAME":"STARLINK-2674","TIME_SYSTEM":"UTC","REF_FRAME":"TEME","FILE":"3807124","RCS_SIZE":"LARGE","INCLINATION":"53.0549","OBJECT_ID":"2021-038B","NORAD_CAT_ID":"48354","TLE_LINE2":"2 48354  53.0549 329.9526 0001606  77.6431 282.4738 15.06367421 98870","LAUNCH_DATE":"2021-05-04","SITE":"AFETR","COUNTRY_CODE":"US","SEMIMAJOR_AXIS":"6925.448","REV_AT_EPOCH":"9887","CENTER_NAME":"EARTH","CLASSIFICATION_TYPE":"U","MEAN_ELEMENT_THEORY":"SGP4","ECCENTRICITY":"0.00016060","EPOCH":"2023-02-18T00:59:58.898688","DECAY_DATE":null,"BSTAR":"-0.00006540600000","GP_ID":"225922424","MEAN_ANOMALY":"282.4738"},{"MEAN_MOTION_DOT":"-0.00021692","PERIAPSIS":"546.558","MEAN_MOTION":"15.06324521","OBJECT_TYPE":"PAYLOAD","TLE_LINE1":"1 48355U 21038C   23049.50235920 -.00021692  00000-0 -14448-2 0  9998","ELEMENT_SET_NO":"999","RA_OF_ASC_NODE":"327.8931","PERIOD":"95.597","EPHEMERIS_TYPE":"0","RCS_SIZE":"LARGE","INCLINATION":"53.0541","FILE":"3807474","MEAN_MOTION_DDOT":"0.0000000000000","OBJECT_NAME":"STARLINK-2635","ARG_OF_PERICENTER":"94.0487","TIME_SYSTEM":"UTC","REF_FRAME":"TEME","APOAPSIS":"548.332","SITE":"AFETR","COUNTRY_CODE":"US","SEMIMAJOR_AXIS":"6925.580","OBJECT_ID":"2021-038C","LAUNCH_DATE":"2021-05-04","TLE_LINE2":"2 48355  53.0541 327.8931 0001281  94.0487 266.0648 15.06324521 99539","NORAD_CAT_ID":"48355","BSTAR":"-0.00144480000000","GP_ID":"225936045","MEAN_ANOMALY":"266.0648","ECCENTRICITY":"0.00012810","EPOCH":"2023-02-18T12:03:23.834880","DECAY_DATE":null,"MEAN_ELEMENT_THEORY":"SGP4","CENTER_NAME":"EARTH","REV_AT_EPOCH":"9953","CLASSIFICATION_TYPE":"U"},{"SITE":"AFETR","COUNTRY_CODE":"US","SEMIMAJOR_AXIS":"6925.379","OBJECT_ID":"2021-038D","NORAD_CAT_ID":"48356","TLE_LINE2":"2 48356  53.0565 327.9093 0001655  73.2995 286.8176 15.06390027 98948","LAUNCH_DATE":"2021-05-04","EPOCH":"2023-02-18T11:58:08.543136","ECCENTRICITY":"0.00016550","DECAY_DATE":null,"GP_ID":"225922920","MEAN_ANOMALY":"286.8176","BSTAR":"0.00083141000000","REV_AT_EPOCH":"9894","CENTER_NAME":"EARTH","CLASSIFICATION_TYPE":"U","MEAN_ELEMENT_THEORY":"SGP4","MEAN_MOTION_DOT":"0.00012121","PERIAPSIS":"546.098","MEAN_MOTION":"15.06390027","RA_OF_ASC_NODE":"327.9093","PERIOD":"95.593","EPHEMERIS_TYPE":"0","OBJECT_TYPE":"PAYLOAD","ELEMENT_SET_NO":"999","TLE_LINE1":"1 48356U 21038D   23049.49870999  .00012121  00000-0  83141-3 0  9990","FILE":"3807124","RCS_SIZE":"LARGE","INCLINATION":"53.0565","APOAPSIS":"548.390","OBJECT_NAME":"STARLINK-2637","MEAN_MOTION_DDOT":"0.0000000000000","ARG_OF_PERICENTER":"73.2995","REF_FRAME":"TEME","TIME_SYSTEM":"UTC"},{"SITE":"AFETR","COUNTRY_CODE":"US","SEMIMAJOR_AXIS":"6925.382","OBJECT_ID":"2021-038E","LAUNCH_DATE":"2021-05-04","TLE_LINE2":"2 48357  53.0541 327.9451 0001743  86.7383 273.3805 15.06389245 98949","NORAD_CAT_ID":"48357","BSTAR":"0.00097320000000","GP_ID":"225921683","MEAN_ANOMALY":"273.3805","DECAY_DATE":null,"ECCENTRICITY":"0.00017430","EPOCH":"2023-02-18T11:56:47.454144","MEAN_ELEMENT_THEORY":"SGP4","CLASSIFICATION_TYPE":"U","CENTER_NAME":"EARTH","REV_AT_EPOCH":"9894","PERIAPSIS":"546.039","MEAN_MOTION":"15.06389245","MEAN_MOTION_DOT":"0.00014240","ELEMENT_SET_NO":"999","TLE_LINE1":"1 48357U 21038E   23049.49777146  .00014240  00000-0  97320-3 0  9999","OBJECT_TYPE":"PAYLOAD","RA_OF_ASC_NODE":"327.9451","EPHEMERIS_TYPE":"0","PERIOD":"95.593","RCS_SIZE":"LARGE","INCLINATION":"53.0541","FILE":"3807124","OBJECT_NAME":"STARLINK-2636","MEAN_MOTION_DDOT":"0.0000000000000","ARG_OF_PERICENTER":"86.7383","TIME_SYSTEM":"UTC","REF_FRAME":"TEME","APOAPSIS":"548.454"},{"DECAY_DATE":null,"ECCENTRICITY":"0.00013180","EPOCH":"2023-02-18T11:47:27.654720","BSTAR":"0.00218700000000","GP_ID":"225921930","MEAN_ANOMALY":"277.1138","CLASSIFICATION_TYPE":"U","REV_AT_EPOCH":"9893","CENTER_NAME":"EARTH","MEAN_ELEMENT_THEORY":"SGP4","SEMIMAJOR_AXIS":"6925.724","COUNTRY_CODE":"US","SITE":"AFETR","LAUNCH_DATE":"2021-05-04","TLE_LINE2":"2 48358  53.0523 327.9464 0001318  83.0001 277.1138 15.06277394 98930","NORAD_CAT_ID":"48358","OBJECT_ID":"2021-038F","FILE":"3807124","INCLINATION":"53.0523","RCS_SIZE":"LARGE","APOAPSIS":"548.502","REF_FRAME":"TEME","TIME_SYSTEM":"UTC","OBJECT_NAME":"STARLINK-2624","MEAN_MOTION_DDOT":"0.0000000000000","ARG_OF_PERICENTER":"83.0001","PERIAPSIS":"546.677","MEAN_MOTION":"15.06277394","MEAN_MOTION_DOT":"0.00032336","EPHEMERIS_TYPE":"0","PERIOD":"95.600","RA_OF_ASC_NODE":"327.9464","ELEMENT_SET_NO":"999","TLE_LINE1":"1 48358U 21038F   23049.49129230  .00032336  00000-0  21870-2 0  9997","OBJECT_TYPE":"PAYLOAD"},{"MEAN_MOTION_DOT":"0.00015701","PERIAPSIS":"546.616","MEAN_MOTION":"15.06393945","OBJECT_TYPE":"PAYLOAD","TLE_LINE1":"1 48359U 21038G   23049.48764535  .00015701  00000-0  10708-2 0  9995","ELEMENT_SET_NO":"999","RA_OF_ASC_NODE":"327.9608","PERIOD":"95.593","EPHEMERIS_TYPE":"0","RCS_SIZE":"LARGE","INCLINATION":"53.0534","FILE":"3807124","OBJECT_NAME":"STARLINK-2628","MEAN_MOTION_DDOT":"0.0000000000000","ARG_OF_PERICENTER":"86.6832","REF_FRAME":"TEME","TIME_SYSTEM":"UTC","APOAPSIS":"547.848","SITE":"AFETR","COUNTRY_CODE":"US","SEMIMAJOR_AXIS":"6925.367","OBJECT_ID":"2021-038G","NORAD_CAT_ID":"48359","TLE_LINE2":"2 48359  53.0534 327.9608 0000890  86.6832 273.4258 15.06393945 98931","LAUNCH_DATE":"2021-05-04","BSTAR":"0.00107080000000","GP_ID":"225923178","MEAN_ANOMALY":"273.4258","EPOCH":"2023-02-18T11:42:12.558240","ECCENTRICITY":"0.00008900","DECAY_DATE":null,"MEAN_ELEMENT_THEORY":"SGP4","REV_AT_EPOCH":"9893","CENTER_NAME":"EARTH","CLASSIFICATION_TYPE":"U"},{"CENTER_NAME":"EARTH","REV_AT_EPOCH":"9893","CLASSIFICATION_TYPE":"U","MEAN_ELEMENT_THEORY":"SGP4","ECCENTRICITY":"0.00018690","EPOCH":"2023-02-18T11:36:54.338400","DECAY_DATE":null,"GP_ID":"225923415","BSTAR":"0.00100790000000","MEAN_ANOMALY":"275.3584","OBJECT_ID":"2021-038H","TLE_LINE2":"2 48360  53.0551 327.9805 0001869  84.7618 275.3584 15.06397686 98938","LAUNCH_DATE":"2021-05-04","NORAD_CAT_ID":"48360","SITE":"AFETR","COUNTRY_CODE":"US","SEMIMAJOR_AXIS":"6925.356","APOAPSIS":"548.515","OBJECT_NAME":"STARLINK-2622","MEAN_MOTION_DDOT":"0.0000000000000","ARG_OF_PERICENTER":"84.7618","REF_FRAME":"TEME","TIME_SYSTEM":"UTC","FILE":"3807124","RCS_SIZE":"LARGE","INCLINATION":"53.0551","RA_OF_ASC_NODE":"327.9805","PERIOD":"95.592","EPHEMERIS_TYPE":"0","OBJECT_TYPE":"PAYLOAD","TLE_LINE1":"1 48360U 21038H   23049.48396225  .00014762  00000-0  10079-2 0  9991","ELEMENT_SET_NO":"999","MEAN_MOTION_DOT":"0.00014762","PERIAPSIS":"545.926","MEAN_MOTION":"15.06397686"},{"COUNTRY_CODE":"US","SITE":"AFETR","SEMIMAJOR_AXIS":"6925.367","OBJECT_ID":"2021-038J","TLE_LINE2":"2 48361  53.0535 326.5010 0001365  71.6750 288.4388 15.06394037 99572","LAUNCH_DATE":"2021-05-04","NORAD_CAT_ID":"48361","DECAY_DATE":null,"EPOCH":"2023-02-18T19:29:17.332224","ECCENTRICITY":"0.00013650","GP_ID":"225936184","BSTAR":"0.00051199000000","MEAN_ANOMALY":"288.4388","CLASSIFICATION_TYPE":"U","REV_AT_EPOCH":"9957","CENTER_NAME":"EARTH","MEAN_ELEMENT_THEORY":"SGP4","MEAN_MOTION":"15.06394037","PERIAPSIS":"546.287","MEAN_MOTION_DOT":"0.00007352","RA_OF_ASC_NODE":"326.5010","EPHEMERIS_TYPE":"0","PERIOD":"95.593","TLE_LINE1":"1 48361U 21038J   23049.81200616  .00007352  00000-0  51199-3 0  9993","ELEMENT_SET_NO":"999","OBJECT_TYPE":"PAYLOAD","FILE":"3807483","RCS_SIZE":"LARGE","INCLINATION":"53.0535","APOAPSIS":"548.177","MEAN_MOTION_DDOT":"0.0000000000000","OBJECT_NAME":"STARLINK-2591","ARG_OF_PERICENTER":"71.6750","REF_FRAME":"TEME","TIME_SYSTEM":"UTC"},{"ARG_OF_PERICENTER":"118.8968","MEAN_MOTION_DDOT":"0.0000000000000","OBJECT_NAME":"STARLINK-2578","TIME_SYSTEM":"UTC","REF_FRAME":"TEME","APOAPSIS":"548.368","RCS_SIZE":"LARGE","INCLINATION":"53.0564","FILE":"3807482","TLE_LINE1":"1 48362U 21038K   23049.77888086  .00033175  00000-0  22377-2 0  9999","ELEMENT_SET_NO":"999","OBJECT_TYPE":"PAYLOAD","RA_OF_ASC_NODE":"326.7328","EPHEMERIS_TYPE":"0","PERIOD":"95.594","PERIAPSIS":"546.273","MEAN_MOTION":"15.06365099","MEAN_MOTION_DOT":"0.00033175","MEAN_ELEMENT_THEORY":"SGP4","CLASSIFICATION_TYPE":"U","CENTER_NAME":"EARTH","REV_AT_EPOCH":"9957","MEAN_ANOMALY":"241.2173","GP_ID":"225936403","BSTAR":"0.00223770000000","DECAY_DATE":null,"EPOCH":"2023-02-18T18:41:35.306304","ECCENTRICITY":"0.00015120","OBJECT_ID":"2021-038K","NORAD_CAT_ID":"48362","TLE_LINE2":"2 48362  53.0564 326.7328 0001512 118.8968 241.2173 15.06365099 99573","LAUNCH_DATE":"2021-05-04","COUNTRY_CODE":"US","SITE":"AFETR","SEMIMAJOR_AXIS":"6925.456"}];
